NORAD_CAT_ID,OBJECT_NAME,OBJECT_TYPE,EPOCH,MEAN_MOTION,ECCENTRICITY,INCLINATION,RA_OF_ASC_NODE,ARG_OF_PERICENTER,MEAN_ANOMALY,BSTAR,MEAN_MOTION_DOT,MEAN_MOTION_DDOT,TLE_LINE0,TLE_LINE1,TLE_LINE2,SEMIMAJOR_AXIS,PERIOD,APOGEE,PERIGEE,DECAYED
53864.0,STARLINK-4779,PAYLOAD,2024-03-28 16:56:49,15.08861602,0.0002107,53.216,235.4134,83.6349,276.4883,0.00060136,9.301e-05,0.0,0 STARLINK-4779,1 53864U 22114AY  24088.70612788  .00009301  00000-0  60136-3 0  9999,2 53864  53.2160 235.4134 0002107  83.6349 276.4883 15.08861602 85244,6917.814,95.436,541.137,538.222,0.0
53864.0,STARLINK-4779,PAYLOAD,2024-03-29 18:22:58,15.08855296,7.58e-05,53.2163,230.6583,25.5124,334.5906,0.00024499,3.615e-05,0.0,0 STARLINK-4779,1 53864U 22114AY  24089.76596049  .00003615  00000-0  24499-3 0  9991,2 53864  53.2163 230.6583 0000758  25.5124 334.5906 15.08855296 85400,6917.834,95.437,540.223,539.174,0.0
53864.0,STARLINK-4779,PAYLOAD,2024-03-30 13:27:37,15.08842577,0.0002089,53.218,227.0876,108.3544,251.7676,2.9753e-05,1.85e-06,0.0,0 STARLINK-4779,1 53864U 22114AY  24090.56084511  .00000185  00000-0  29753-4 0  9995,2 53864  53.2180 227.0876 0002089 108.3544 251.7676 15.08842577 85524,6917.873,95.437,541.183,538.292,0.0
53864.0,STARLINK-4779,PAYLOAD,2024-03-31 02:10:42,15.08839022,0.000191,53.2169,224.7103,82.1406,277.9803,7.8393e-05,9.6e-06,0.0,0 STARLINK-4779,1 53864U 22114AY  24091.09077063  .00000960  00000-0  78393-4 0  9993,2 53864  53.2169 224.7103 0001910  82.1406 277.9803 15.08839022 85608,6917.883,95.438,541.07,538.427,0.0
53864.0,STARLINK-4779,PAYLOAD,2024-03-31 14:53:47,15.08835139,0.0001004,53.2143,222.3316,103.7048,256.4056,0.00029181,4.359e-05,0.0,0 STARLINK-4779,1 53864U 22114AY  24091.62068983  .00004359  00000-0  29181-3 0  9999,2 53864  53.2143 222.3316 0001004 103.7048 256.4056 15.08835139 86222,6917.895,95.438,540.455,539.066,0.0
53864.0,STARLINK-4779,PAYLOAD,2024-03-31 16:29:10,15.08846781,0.0001327,53.2166,222.0353,80.5599,279.5544,0.00028827,4.304e-05,0.0,0 STARLINK-4779,1 53864U 22114AY  24091.68692604  .00004304  00000-0  28827-3 0  9994,2 53864  53.2166 222.0353 0001327  80.5599 279.5544 15.08846781 86230,6917.86,95.437,540.643,538.807,0.0
53864.0,STARLINK-4779,PAYLOAD,2024-04-01 13:09:12,15.08835171,0.0001724,53.2171,218.1696,86.791,273.3279,7.9317e-05,9.74e-06,0.0,0 STARLINK-4779,1 53864U 22114AY  24092.54805586  .00000974  00000-0  79317-4 0  9995,2 53864  53.2171 218.1696 0001724  86.7910 273.3279 15.08835171 85820,6917.895,95.438,540.953,538.568,0.0
53864.0,STARLINK-4779,PAYLOAD,2024-04-02 11:24:34,15.08857251,0.00013,53.2158,214.0049,100.9347,259.1791,0.00044208,6.758e-05,0.0,0 STARLINK-4779,1 53864U 22114AY  24093.47540300  .00006758  00000-0  44208-3 0  9994,2 53864  53.2158 214.0049 0001300 100.9347 259.1791 15.08857251 85964,6917.828,95.436,540.592,538.793,0.0
53864.0,STARLINK-4779,PAYLOAD,2024-04-02 14:35:20,15.08864855,0.000138,53.216,213.4103,98.3678,261.7471,0.00058077,8.973e-05,0.0,0 STARLINK-4779,1 53864U 22114AY  24093.60788085  .00008973  00000-0  58077-3 0  9993,2 53864  53.2160 213.4103 0001380  98.3678 261.7471 15.08864855 86521,6917.804,95.436,540.624,538.715,0.0
53864.0,STARLINK-4779,PAYLOAD,2024-04-03 11:15:21,15.08850797,0.0001377,53.2163,209.5448,101.1321,258.9826,0.00020248,2.937e-05,0.0,0 STARLINK-4779,1 53864U 22114AY  24094.46900383  .00002937  00000-0  20248-3 0  9998,2 53864  53.2163 209.5448 0001377 101.1321 258.9826 15.08850797 86113,6917.847,95.437,540.665,538.76,0.0
53864.0,STARLINK-4779,PAYLOAD,2024-04-03 14:26:08,15.0885171,0.0001511,53.2163,208.9503,87.0658,273.0507,0.00025366,3.753e-05,0.0,0 STARLINK-4779,1 53864U 22114AY  24094.60148396  .00003753  00000-0  25366-3 0  9995,2 53864  53.2163 208.9503 0001511  87.0658 273.0507 15.08851710 86674,6917.845,95.437,540.755,538.664,0.0
53864.0,STARLINK-4779,PAYLOAD,2024-04-04 14:16:55,15.08841526,0.0001299,53.2169,204.4914,83.5384,276.5756,-3.3431e-05,-8.2e-06,0.0,0 STARLINK-4779,1 53864U 22114AY  24095.59508833 -.00000820  00000-0 -33431-4 0  9997,2 53864  53.2169 204.4914 0001299  83.5384 276.5756 15.08841526 86282,6917.876,95.437,540.639,538.842,0.0
53864.0,STARLINK-4779,PAYLOAD,2024-04-05 14:07:42,15.08848386,0.0001146,53.2163,200.0315,79.3471,280.765,0.00033862,5.107e-05,0.0,0 STARLINK-4779,1 53864U 22114AY  24096.58868734  .00005107  00000-0  33862-3 0  9994,2 53864  53.2163 200.0315 0001146  79.3471 280.7650 15.08848386 86971,6917.855,95.437,540.513,538.927,0.0
53864.0,STARLINK-4779,PAYLOAD,2024-04-06 06:01:34,15.08841836,0.0001274,53.2178,197.0621,105.2588,254.8545,-9.3392e-05,-1.774e-05,0.0,0 STARLINK-4779,1 53864U 22114AY  24097.25108879 -.00001774  00000-0 -93392-4 0  9999,2 53864  53.2178 197.0621 0001274 105.2588 254.8545 15.08841836 86532,6917.875,95.437,540.621,538.858,0.0
53864.0,STARLINK-4779,PAYLOAD,2024-04-07 05:52:21,15.08843777,9.41e-05,53.2148,192.5982,99.644,260.4658,-0.00010035,-1.885e-05,0.0,0 STARLINK-4779,1 53864U 22114AY  24098.24469227 -.00001885  00000-0 -10035-3 0  9991,2 53864  53.2148 192.5982 0000941  99.6440 260.4658 15.08843777 87223,6917.869,95.437,540.385,539.083,0.0
53864.0,STARLINK-4779,PAYLOAD,2024-04-07 15:24:40,15.08846504,0.0001245,53.2168,190.8129,87.5555,272.558,0.00013018,1.785e-05,0.0,0 STARLINK-4779,1 53864U 22114AY  24098.64213256  .00001785  00000-0  13018-3 0  9995,2 53864  53.2168 190.8129 0001245  87.5555 272.5580 15.08846504 86745,6917.861,95.437,540.587,538.864,0.0
53864.0,STARLINK-4779,PAYLOAD,2024-04-08 05:43:09,15.08839031,0.0001987,53.2128,188.1358,77.3434,282.778,0.00022335,3.268e-05,0.0,0 STARLINK-4779,1 53864U 22114AY  24099.23829997  .00003268  00000-0  22335-3 0  9996,2 53864  53.2128 188.1358 0001987  77.3434 282.7780 15.08839031 86833,6917.883,95.438,541.123,538.374,0.0
53864.0,STARLINK-4779,PAYLOAD,2024-04-08 12:04:41,15.08839199,0.0001736,53.2125,186.9459,82.7517,277.3672,0.00020186,2.926e-05,0.0,0 STARLINK-4779,1 53864U 22114AY  24099.50325959  .00002926  00000-0  20186-3 0  9997,2 53864  53.2125 186.9459 0001736  82.7517 277.3672 15.08839199 87412,6917.883,95.438,540.949,538.547,0.0
53864.0,STARLINK-4779,PAYLOAD,2024-04-08 23:12:23,15.08845578,0.000141,53.2155,184.8652,82.5664,277.5488,0.00014843,2.075e-05,0.0,0 STARLINK-4779,1 53864U 22114AY  24099.96693639  .00002075  00000-0  14843-3 0  9998,2 53864  53.2155 184.8652 0001410  82.5664 277.5488 15.08845578 87489,6917.863,95.437,540.704,538.753,0.0
53864.0,STARLINK-4779,PAYLOAD,2024-04-09 11:55:28,15.08844223,0.0001424,53.2153,182.4856,86.0236,274.0919,0.00012768,1.745e-05,0.0,0 STARLINK-4779,1 53864U 22114AY  24100.49685661  .00001745  00000-0  12768-3 0  9992,2 53864  53.2153 182.4856 0001424  86.0236 274.0919 15.08844223 87023,6917.867,95.437,540.718,538.747,0.0
53864.0,STARLINK-4779,PAYLOAD,2024-04-10 10:10:52,15.0884116,0.0001426,53.2167,178.3223,89.9029,270.2127,0.0002835,4.227e-05,0.0,0 STARLINK-4779,1 53864U 22114AY  24101.42421701  .00004227  00000-0  28350-3 0  9991,2 53864  53.2167 178.3223 0001426  89.9029 270.2127 15.08841160 87705,6917.877,95.437,540.728,538.755,0.0
53864.0,STARLINK-4779,PAYLOAD,2024-04-11 11:37:02,15.0883661,0.0001425,53.2177,173.564,93.509,266.6066,9.8088e-06,-1.32e-06,0.0,0 STARLINK-4779,1 53864U 22114AY  24102.48405958 -.00000132  00000-0  98088-5 0  9993,2 53864  53.2177 173.5640 0001425  93.5090 266.6066 15.08836610 87327,6917.891,95.438,540.742,538.77,0.0
53864.0,STARLINK-4779,PAYLOAD,2024-04-11 21:09:21,15.08837731,0.0001408,53.2178,171.7799,92.5478,267.5675,-3.7527e-06,-3.48e-06,0.0,0 STARLINK-4779,1 53864U 22114AY  24102.88149954 -.00000348  00000-0 -37527-5 0  9999,2 53864  53.2178 171.7799 0001408  92.5478 267.5675 15.08837731 87920,6917.887,95.438,540.726,538.778,0.0
53864.0,STARLINK-4779,PAYLOAD,2024-04-12 11:27:49,15.08838825,0.0001429,53.2174,169.1051,96.8853,263.2302,6.7953e-05,7.94e-06,0.0,0 STARLINK-4779,1 53864U 22114AY  24103.47765762  .00000794  00000-0  67953-4 0  9994,2 53864  53.2174 169.1051 0001429  96.8853 263.2302 15.08838825 88011,6917.884,95.438,540.738,538.76,0.0
53864.0,STARLINK-4779,PAYLOAD,2024-04-13 11:18:37,15.08831301,0.0001614,53.2175,164.6445,101.2434,258.874,4.3998e-05,4.12e-06,0.0,0 STARLINK-4779,1 53864U 22114AY  24104.47126837  .00000412  00000-0  43998-4 0  9999,2 53864  53.2175 164.6445 0001614 101.2434 258.8740 15.08831301 87625,6917.907,95.438,540.889,538.655,0.0
53864.0,STARLINK-4779,PAYLOAD,2024-04-14 11:09:23,15.08890268,0.0001874,53.218,160.1804,86.6807,273.4399,-0.00049586,-8.182e-05,0.0,0 STARLINK-4779,1 53864U 22114AY  24105.46485088 -.00008182  00000-0 -49586-3 0  9997,2 53864  53.2180 160.1804 0001874  86.6807 273.4399 15.08890268 87775,6917.727,95.434,540.888,538.295,0.0
53864.0,STARLINK-4779,PAYLOAD,2024-04-15 04:38:39,15.0882707,0.0001736,53.2178,156.9142,69.1784,290.9394,0.00028414,4.235e-05,0.0,0 STARLINK-4779,1 53864U 22114AY  24106.19350845  .00004235  00000-0  28414-3 0  9990,2 53864  53.2178 156.9142 0001736  69.1784 290.9394 15.08827070 87889,6917.92,95.438,540.986,538.584,0.0
53864.0,STARLINK-4779,PAYLOAD,2024-04-15 11:00:11,15.08843505,0.0001865,53.2183,155.7252,71.2759,288.8435,0.00012979,1.778e-05,0.0,0 STARLINK-4779,1 53864U 22114AY  24106.45846470  .00001778  00000-0  12979-3 0  9991,2 53864  53.2183 155.7252 0001865  71.2759 288.8435 15.08843505 87921,6917.87,95.437,541.025,538.444,0.0
53864.0,STARLINK-4779,PAYLOAD,2024-04-15 20:32:30,15.08842955,0.0001589,53.2177,153.9409,99.6822,260.435,8.3156e-05,1.036e-05,0.0,0 STARLINK-4779,1 53864U 22114AY  24106.85590413  .00001036  00000-0  83156-4 0  9991,2 53864  53.2177 153.9409 0001589  99.6822 260.4350 15.08842955 88523,6917.871,95.437,540.836,538.637,0.0
53864.0,STARLINK-4779,PAYLOAD,2024-04-16 09:15:34,15.0884922,0.0001526,53.2166,151.5603,84.4347,275.6819,1.8582e-05,8e-08,0.0,0 STARLINK-4779,1 53864U 22114AY  24107.38582136  .00000008  00000-0  18582-4 0  9992,2 53864  53.2166 151.5603 0001526  84.4347 275.6819 15.08849220 88605,6917.852,95.437,540.773,538.662,0.0
